STARLINK-5527           
1 56497U 23064BB  23151.54794535  .00005921  00000+0  50959-4 0  9998
2 56497  69.9992 186.7362 0003565 268.0358  92.0429 15.69930065  3295
STARLINK-5522           
1 56498U 23064BC  23151.54826381  .00008810  00000+0  74960-4 0  9992
2 56498  69.9991 186.7375 0003410 270.8240  89.2565 15.69923471  3291
STARLINK-5775           
1 56503U 23065A   23151.56353249  .00016041  00000+0  12541-3 0  9991
2 56503  43.0002 339.6198 0002189 269.5874  90.4743 15.71378360  3944
STARLINK-5716           
1 56504U 23065B   23151.56332308  .00039250  00000+0  30091-3 0  9992
2 56504  43.0001 339.6171 0002128 266.9396  93.1228 15.71388613  3948
STARLINK-5763           
1 56505U 23065C   23151.56321752  .00018778  00000+0  14616-3 0  9991
2 56505  43.0002 339.6168 0002239 271.9074  88.1537 15.71380018  3946
STARLINK-5340           
1 56506U 23065D   23151.56342895  .00021608  00000+0  16767-3 0  9998
2 56506  43.0004 339.6187 0002369 263.9820  96.0778 15.71371606  3942
STARLINK-5333           
1 56507U 23065E   23151.58334491  .00002581  00000+0  23122-4 0  9997
2 56507  43.0019 339.4191 0001605 264.3999 241.8814 15.71357783  3161
STARLINK-5335           
1 56508U 23065F   23151.56311316  .00017766  00000+0  13850-3 0  9994
2 56508  43.0003 339.6154 0002233 272.5759  87.4854 15.71377796  3949
STARLINK-5334           
1 56509U 23065G   23151.56268551  .00004298  00000+0  36192-4 0  9998
2 56509  43.0001 339.6121 0002466 260.5899  99.4690 15.71369021  3945
STARLINK-5339           
1 56510U 23065H   23151.56290166  .00014305  00000+0  11225-3 0  9996
2 56510  43.0005 339.6135 0002235 274.2429  85.8183 15.71375298  3940
STARLINK-5351           
1 56511U 23065J   23151.56247739  .00040812  00000+0  31310-3 0  9994
2 56511  42.9999 339.6121 0002419 263.8736  96.1856 15.71356950  3941
STARLINK-5349           
1 56512U 23065K   23151.56279763  .00037220  00000+0  28564-3 0  9993
2 56512  43.0003 339.6126 0002256 267.3581  92.7029 15.71384482  3946
STARLINK-5329           
1 56513U 23065L   23151.56227274  .00027463  00000+0  21198-3 0  9998
2 56513  43.0005 339.6103 0002310 271.3065  88.7538 15.71376868  3946
STARLINK-5343           
1 56514U 23065M   23151.58334491  .00062768  00000+0  46319-3 0  9990
2 56514  43.0029 339.2100 0002798 283.1814 306.2595 15.72122302  1301
STARLINK-5348           
1 56515U 23065N   23151.56216834  .00035243  00000+0  27076-3 0  9996
2 56515  43.0001 339.6092 0002148 274.6597  85.4025 15.71380697  3946
STARLINK-5342           
1 56516U 23065P   23151.56237926  .00050957  00000+0  38921-3 0  9992
2 56516  43.0000 339.6106 0002146 276.7148  83.3475 15.71381454  3943
STARLINK-5345           
1 56517U 23065Q   23151.56185182  .00012675  00000+0  99886-4 0  9992
2 56517  43.0003 339.6069 0002322 273.0869  86.9733 15.71371339  3948
STARLINK-5346           
1 56518U 23065R   23151.56206130  .00039646  00000+0  30390-3 0  9991
2 56518  43.0000 339.6069 0002132 271.0751  88.9872 15.71388739  3941
STARLINK-6313           
1 56519U 23065S   23151.56164007  .00041005  00000+0  31412-3 0  9996
2 56519  42.9999 339.6041 0002275 266.0777  93.9830 15.71390383  3945
STARLINK-6344           
1 56520U 23065T   23151.56195711  .00015853  00000+0  12400-3 0  9992
2 56520  43.0006 339.6067 0002152 276.1630  83.8993 15.71375186  3942
STARLINK-6333           
1 56521U 23065U   23151.56143017  .00024883  00000+0  19245-3 0  9992
2 56521  43.0001 339.6033 0002384 259.4288 100.6311 15.71376157  3942
STARLINK-6327           
1 56522U 23065V   23151.56174721  .00031477  00000+0  24232-3 0  9998
2 56522  43.0001 339.6055 0002126 274.3443  85.7182 15.71379618  3944
STARLINK-6328           
1 56523U 23065W   23151.56122239  .00004723  00000+0  39435-4 0  9992
2 56523  43.0001 339.6009 0001989 276.7525  83.3116 15.71362840  3947
STARLINK-6323           
1 56524U 23065X   23151.56153669  .00044960  00000+0  34403-3 0  9990
2 56524  42.9997 339.6040 0002068 270.7700  89.2930 15.71383312  3949
STARLINK-6329           
1 56525U 23065Y   23151.56101018  .00041996  00000+0  32159-3 0  9994
2 56525  42.9997 339.5995 0002262 270.3090  89.7518 15.71390542  3942
STARLINK-6317           
1 56526U 23065Z   23151.56132549  .00007151  00000+0  57904-4 0  9999
2 56526  43.0004 339.6016 0002285 270.1216  89.9390 15.71368535  3949
STARLINK-6335           
1 56527U 23065AA  23151.56090470  .00035412  00000+0  27198-3 0  9998
2 56527  42.9996 339.5985 0002009 264.0684  95.9955 15.71386244  3948
STARLINK-6337           
1 56528U 23065AB  23151.56110047  .00005782  00000+0  47545-4 0  9998
2 56528  43.0001 339.6006 0001751 275.2975  84.7693 15.71337722  3945
STARLINK-6307           
1 56529U 23065AC  23151.56048347  .00015007  00000+0  11757-3 0  9998
2 56529  42.9999 339.5958 0002156 273.6229  86.4392 15.71376349  3942
STARLINK-6318           
1 56530U 23065AD  23151.56079885  .00016427  00000+0  12835-3 0  9996
2 56530  43.0000 339.5972 0002271 270.4463  89.6144 15.71376860  3946
STARLINK-6280           
1 56531U 23065AE  23151.56039188 -.00056680  00000+0 -43326-3 0  9995
2 56531  42.9997 339.5956 0004677 298.2329  61.8067 15.71254131  3945
STARLINK-6319           
1 56532U 23065AF  23151.56069426  .00034345  00000+0  26393-3 0  9991
2 56532  42.9996 339.5968 0002078 264.7259  95.3372 15.71385541  3942
STARLINK-6310           
1 56533U 23065AG  23151.56036994 -.00599744  00000+0 -50585-2 0  9996
2 56533  42.9998 339.5949 0002353 257.2599 102.8006 15.70635068  3943
STARLINK-6308           
1 56534U 23065AH  23151.56058941  .00043726  00000+0  33460-3 0  9999
2 56534  42.9996 339.5966 0002148 274.0715  85.9907 15.71392769  3940
STARLINK-6309           
1 56535U 23065AJ  23151.56000807 -.00460117  00000+0 -38279-2 0  9999
2 56535  42.9997 339.5920 0003978 288.2823  71.7611 15.70549116  3945
STARLINK-6312           
1 56536U 23065AK  23151.56011425 -.00461366  00000+0 -38402-2 0  9993
2 56536  42.9998 339.5929 0002553 267.6908  92.3667 15.70552811  3945
STARLINK-6311           
1 56537U 23065AL  23151.55994862 -.00353710  00000+0 -29049-2 0  9998
2 56537  42.9994 339.5915 0004474 294.1645  65.8755 15.70546503  3948
STARLINK-6314           
1 56538U 23065AM  23151.56016825  .00038798  00000+0  29748-3 0  9995
2 56538  42.9998 339.5929 0002117 270.0884  89.9741 15.71390316  3940
STARLINK-6135           
1 56539U 23065AN  23151.55983862 -.00351939  00000+0 -28886-2 0  9997
2 56539  42.9998 339.5907 0004532 293.2587  66.7803 15.70555264  3943
STARLINK-6136           
1 56540U 23065AP  23151.56022734 -.00466560  00000+0 -38876-2 0  9999
2 56540  42.9997 339.5936 0004345 294.8342  65.2073 15.70526667  3942
STARLINK-6249           
1 56541U 23065AQ  23151.55946986 -.00458652  00000+0 -38115-2 0  9992
2 56541  42.9996 339.5883 0004196 291.6647  68.3773 15.70569115  3946
STARLINK-6266           
1 56542U 23065AR  23151.55953820  .00019267  00000+0  14980-3 0  9996
2 56542  42.9995 339.5886 0003368 316.0091  44.0509 15.71388489  3946
STARLINK-6228           
1 56543U 23065AS  23151.55920840 -.00655843  00000+0 -55741-2 0  9990
2 56543  42.9992 339.5864 0004590 292.2244  67.8136 15.70591092  3947
STARLINK-6226           
1 56544U 23065AT  23151.55944595 -.00006515  00000+0 -46260-4 0  9998
2 56544  42.9997 339.5873 0006093 254.2451 105.7745 15.71315061  3940
STARLINK-6086           
1 56545U 23065AU  23151.55916999 -.00229489  00000+0 -18521-2 0  9990
2 56545  42.9998 339.5852 0003867 293.9768  66.0695 15.70601654  3944
STARLINK-6187           
1 56546U 23065AV  23151.55930303 -.00722188  00000+0 -61803-2 0  9991
2 56546  42.9995 339.5868 0005494 292.3697  67.6588 15.70605110  3940
STARLINK-6291           
1 56547U 23065AW  23151.55870803 -.00011635  00000+0 -85457-4 0  9991
2 56547  42.9996 339.5823 0004080 289.6533  70.3895 15.71323553  3942
STARLINK-6244           
1 56548U 23065AX  23151.55900727  .00004685  00000+0  39144-4 0  9998
2 56548  42.9997 339.5842 0005247 243.6859 116.3470 15.71362554  3946
STARLINK-6263           
1 56549U 23065AY  23151.55841534  .00546010  00000+0  38111-2 0  9993
2 56549  42.9997 339.5797 0007843 245.5848 114.4202 15.71889896  3944
STARLINK-6255           
1 56550U 23065AZ  23151.55893272 -.00453582  00000+0 -37639-2 0  9998
2 56550  42.9995 339.5833 0004113 289.5697  70.4727 15.70589889  3943
STARLINK-6199           
1 56551U 23065BA  23151.55843683 -.00336222  00000+0 -27468-2 0  9990
2 56551  42.9995 339.5799 0004435 291.1422  68.8972 15.70621223  3949
STARLINK-5802           
1 56552U 23065BB  23151.55840168  .00538958  00000+0  37175-2 0  9990
2 56552  42.9997 339.5802 0009891 246.0626 113.9206 15.72173320  3947
STARLINK-6074           
1 56553U 23065BC  23151.55817272  .00000518  00000+0  74143-5 0  9996
2 56553  42.9997 339.5781 0003314 320.8502  39.2126 15.71349277  3948
STARLINK-6295           
1 56554U 23065BD  23151.55850110 -.00449570  00000+0 -37250-2 0  9997
2 56554  42.9999 339.5802 0004226 291.0420  68.9995 15.70613107  3944
STARLINK-6252           
1 56555U 23065BE  23151.49450608 -.00414425  00000+0 -34002-2 0  9992
2 56555  42.9995 339.9612 0002970 323.9806  36.0861 15.70756815  3932
STARLINK-5302           
1 56556U 23065BF  23151.55826937 -.00272615  00000+0 -22104-2 0  9995
2 56556  42.9999 339.5783 0004226 293.3747  66.6676 15.70616820  3947
STARLINK-6265           
1 56557U 23065BG  23151.24004407  .00132835  00000+0  99420-3 0  9995
2 56557  42.9994 341.4945 0004210   1.9156 358.1727 15.71493813  3891
STARLINK-6286           
1 56558U 23065BH  23150.98571612 -.00062078  00000+0 -47525-3 0  9995
2 56558  42.9997 343.0261 0001787 319.0647  41.0087 15.71265862  3852
FALCON 9 DEB            
1 56559U 23065BJ  23151.54953428  .00321640  47277-4  90303-3 0  9993
2 56559  43.0150 337.7271 0017545  98.2224 262.0642 15.92510508  3544
